STARLINK-36984          
1 68168U 26050B   26087.14825759  .00235677  00000+0  11602-2 0  9997
2 68168  53.1598 189.3259 0001040   9.7300 350.3743 15.80968465  3395
STARLINK-37077          
1 68169U 26050C   26087.14750883  .00237077  00000+0  11674-2 0  9998
2 68169  53.1597 189.3205 0001505  18.4451 341.6626 15.80958235  3393
STARLINK-37003          
1 68170U 26050D   26087.14675760  .00229482  00000+0  11308-2 0  9995
2 68170  53.1597 189.3153 0000994  26.1376 333.9697 15.80964509  3393
STARLINK-37034          
1 68171U 26050E   26087.14600685  .00239860  00000+0  11801-2 0  9999
2 68171  53.1598 189.3104 0001238  11.5735 348.5316 15.80969724  3394
STARLINK-37031          
1 68172U 26050F   26087.14526016  .00200314  00000+0  99189-3 0  9993
2 68172  53.1597 189.3053 0000888  35.4138 324.6944 15.80942356  3393
STARLINK-37076          
1 68173U 26050G   26087.14450826  .00234585  00000+0  11554-2 0  9995
2 68173  53.1595 189.3004 0000852  32.6009 327.5066 15.80960521  3396
STARLINK-37078          
1 68174U 26050H   26087.14376054  .00450034  00000+0  21483-2 0  9997
2 68174  53.1596 189.2950 0000659 153.1607 206.9450 15.81058795  3394
STARLINK-36886          
1 68175U 26050J   26087.14300801  .00197923  00000+0  98037-3 0  9990
2 68175  53.1595 189.2899 0001477  11.9735 348.1323 15.80942257  3390
STARLINK-36905          
1 68176U 26050K   26087.14225661  .00251952  00000+0  12371-2 0  9990
2 68176  53.1595 189.2849 0000552  96.2485 263.8601 15.80979427  3398
STARLINK-36668          
1 68177U 26050L   26087.14150503  .00256265  00000+0  12571-2 0  9997
2 68177  53.1595 189.2795 0000179 106.5062 253.5980 15.80986677  3391
STARLINK-36677          
1 68178U 26050M   26087.14075406  .00223403  00000+0  11005-2 0  9995
2 68178  53.1596 189.2739 0000773 134.6620 225.4466 15.80988289  3391
STARLINK-37052          
1 68179U 26050N   26087.14000609  .00264831  00000+0  12984-2 0  9996
2 68179  53.1591 189.2698 0000992 128.0485 232.0628 15.80976271  3392
