CCSDS_OMM_VERS = 2.0
CREATION_DATE  = 
ORIGINATOR     = 

OBJECT_NAME    = STARLINK-36984
OBJECT_ID      = 2026-050B
CENTER_NAME    = EARTH
REF_FRAME      = TEME
TIME_SYSTEM    = UTC
MEAN_ELEMENT_THEORY = SGP/SGP4

EPOCH          = 2026-03-28T03:33:29.455776
MEAN_MOTION    = 15.80968465
ECCENTRICITY   = .000104
INCLINATION    = 53.1598
RA_OF_ASC_NODE = 189.3259
ARG_OF_PERICENTER = 9.7300
MEAN_ANOMALY   = 350.3743

EPHEMERIS_TYPE = 0
CLASSIFICATION_TYPE = U
NORAD_CAT_ID   = 68168
ELEMENT_SET_NO = 999
REV_AT_EPOCH   = 339
BSTAR          = .11602E-2
MEAN_MOTION_DOT = .235677E-2
MEAN_MOTION_DDOT = 0

CCSDS_OMM_VERS = 2.0
CREATION_DATE  = 
ORIGINATOR     = 

OBJECT_NAME    = STARLINK-37077
OBJECT_ID      = 2026-050C
CENTER_NAME    = EARTH
REF_FRAME      = TEME
TIME_SYSTEM    = UTC
MEAN_ELEMENT_THEORY = SGP/SGP4

EPOCH          = 2026-03-28T03:32:24.762912
MEAN_MOTION    = 15.80958235
ECCENTRICITY   = .0001505
INCLINATION    = 53.1597
RA_OF_ASC_NODE = 189.3205
ARG_OF_PERICENTER = 18.4451
MEAN_ANOMALY   = 341.6626

EPHEMERIS_TYPE = 0
CLASSIFICATION_TYPE = U
NORAD_CAT_ID   = 68169
ELEMENT_SET_NO = 999
REV_AT_EPOCH   = 339
BSTAR          = .11674E-2
MEAN_MOTION_DOT = .237077E-2
MEAN_MOTION_DDOT = 0

CCSDS_OMM_VERS = 2.0
CREATION_DATE  = 
ORIGINATOR     = 

OBJECT_NAME    = STARLINK-37003
OBJECT_ID      = 2026-050D
CENTER_NAME    = EARTH
REF_FRAME      = TEME
TIME_SYSTEM    = UTC
MEAN_ELEMENT_THEORY = SGP/SGP4

EPOCH          = 2026-03-28T03:31:19.856640
MEAN_MOTION    = 15.80964509
ECCENTRICITY   = .0000994
INCLINATION    = 53.1597
RA_OF_ASC_NODE = 189.3153
ARG_OF_PERICENTER = 26.1376
MEAN_ANOMALY   = 333.9697

EPHEMERIS_TYPE = 0
CLASSIFICATION_TYPE = U
NORAD_CAT_ID   = 68170
ELEMENT_SET_NO = 999
REV_AT_EPOCH   = 339
BSTAR          = .11308E-2
MEAN_MOTION_DOT = .229482E-2
MEAN_MOTION_DDOT = 0

CCSDS_OMM_VERS = 2.0
CREATION_DATE  = 
ORIGINATOR     = 

OBJECT_NAME    = STARLINK-37034
OBJECT_ID      = 2026-050E
CENTER_NAME    = EARTH
REF_FRAME      = TEME
TIME_SYSTEM    = UTC
MEAN_ELEMENT_THEORY = SGP/SGP4

EPOCH          = 2026-03-28T03:30:14.991840
MEAN_MOTION    = 15.80969724
ECCENTRICITY   = .0001238
INCLINATION    = 53.1598
RA_OF_ASC_NODE = 189.3104
ARG_OF_PERICENTER = 11.5735
MEAN_ANOMALY   = 348.5316

EPHEMERIS_TYPE = 0
CLASSIFICATION_TYPE = U
NORAD_CAT_ID   = 68171
ELEMENT_SET_NO = 999
REV_AT_EPOCH   = 339
BSTAR          = .11801E-2
MEAN_MOTION_DOT = .23986E-2
MEAN_MOTION_DDOT = 0

CCSDS_OMM_VERS = 2.0
CREATION_DATE  = 
ORIGINATOR     = 

OBJECT_NAME    = STARLINK-37031
OBJECT_ID      = 2026-050F
CENTER_NAME    = EARTH
REF_FRAME      = TEME
TIME_SYSTEM    = UTC
MEAN_ELEMENT_THEORY = SGP/SGP4

EPOCH          = 2026-03-28T03:29:10.477824
MEAN_MOTION    = 15.80942356
ECCENTRICITY   = .0000888
INCLINATION    = 53.1597
RA_OF_ASC_NODE = 189.3053
ARG_OF_PERICENTER = 35.4138
MEAN_ANOMALY   = 324.6944

EPHEMERIS_TYPE = 0
CLASSIFICATION_TYPE = U
NORAD_CAT_ID   = 68172
ELEMENT_SET_NO = 999
REV_AT_EPOCH   = 339
BSTAR          = .99189E-3
MEAN_MOTION_DOT = .200314E-2
MEAN_MOTION_DDOT = 0

CCSDS_OMM_VERS = 2.0
CREATION_DATE  = 
ORIGINATOR     = 

OBJECT_NAME    = STARLINK-37076
OBJECT_ID      = 2026-050G
CENTER_NAME    = EARTH
REF_FRAME      = TEME
TIME_SYSTEM    = UTC
MEAN_ELEMENT_THEORY = SGP/SGP4

EPOCH          = 2026-03-28T03:28:05.513664
MEAN_MOTION    = 15.80960521
ECCENTRICITY   = .0000852
INCLINATION    = 53.1595
RA_OF_ASC_NODE = 189.3004
ARG_OF_PERICENTER = 32.6009
MEAN_ANOMALY   = 327.5066

EPHEMERIS_TYPE = 0
CLASSIFICATION_TYPE = U
NORAD_CAT_ID   = 68173
ELEMENT_SET_NO = 999
REV_AT_EPOCH   = 339
BSTAR          = .11554E-2
MEAN_MOTION_DOT = .234585E-2
MEAN_MOTION_DDOT = 0

CCSDS_OMM_VERS = 2.0
CREATION_DATE  = 
ORIGINATOR     = 

OBJECT_NAME    = STARLINK-37078
OBJECT_ID      = 2026-050H
CENTER_NAME    = EARTH
REF_FRAME      = TEME
TIME_SYSTEM    = UTC
MEAN_ELEMENT_THEORY = SGP/SGP4

EPOCH          = 2026-03-28T03:27:00.910656
MEAN_MOTION    = 15.81058795
ECCENTRICITY   = .0000659
INCLINATION    = 53.1596
RA_OF_ASC_NODE = 189.2950
ARG_OF_PERICENTER = 153.1607
MEAN_ANOMALY   = 206.9450

EPHEMERIS_TYPE = 0
CLASSIFICATION_TYPE = U
NORAD_CAT_ID   = 68174
ELEMENT_SET_NO = 999
REV_AT_EPOCH   = 339
BSTAR          = .21483E-2
MEAN_MOTION_DOT = .450034E-2
MEAN_MOTION_DDOT = 0

CCSDS_OMM_VERS = 2.0
CREATION_DATE  = 
ORIGINATOR     = 

OBJECT_NAME    = STARLINK-36886
OBJECT_ID      = 2026-050J
CENTER_NAME    = EARTH
REF_FRAME      = TEME
TIME_SYSTEM    = UTC
MEAN_ELEMENT_THEORY = SGP/SGP4

EPOCH          = 2026-03-28T03:25:55.892064
MEAN_MOTION    = 15.80942257
ECCENTRICITY   = .0001477
INCLINATION    = 53.1595
RA_OF_ASC_NODE = 189.2899
ARG_OF_PERICENTER = 11.9735
MEAN_ANOMALY   = 348.1323

EPHEMERIS_TYPE = 0
CLASSIFICATION_TYPE = U
NORAD_CAT_ID   = 68175
ELEMENT_SET_NO = 999
REV_AT_EPOCH   = 339
BSTAR          = .98037E-3
MEAN_MOTION_DOT = .197923E-2
MEAN_MOTION_DDOT = 0

CCSDS_OMM_VERS = 2.0
CREATION_DATE  = 
ORIGINATOR     = 

OBJECT_NAME    = STARLINK-36905
OBJECT_ID      = 2026-050K
CENTER_NAME    = EARTH
REF_FRAME      = TEME
TIME_SYSTEM    = UTC
MEAN_ELEMENT_THEORY = SGP/SGP4

EPOCH          = 2026-03-28T03:24:50.971104
MEAN_MOTION    = 15.80979427
ECCENTRICITY   = .0000552
INCLINATION    = 53.1595
RA_OF_ASC_NODE = 189.2849
ARG_OF_PERICENTER = 96.2485
MEAN_ANOMALY   = 263.8601

EPHEMERIS_TYPE = 0
CLASSIFICATION_TYPE = U
NORAD_CAT_ID   = 68176
ELEMENT_SET_NO = 999
REV_AT_EPOCH   = 339
BSTAR          = .12371E-2
MEAN_MOTION_DOT = .251952E-2
MEAN_MOTION_DDOT = 0

CCSDS_OMM_VERS = 2.0
CREATION_DATE  = 
ORIGINATOR     = 

OBJECT_NAME    = STARLINK-36668
OBJECT_ID      = 2026-050L
CENTER_NAME    = EARTH
REF_FRAME      = TEME
TIME_SYSTEM    = UTC
MEAN_ELEMENT_THEORY = SGP/SGP4

EPOCH          = 2026-03-28T03:23:46.034592
MEAN_MOTION    = 15.80986677
ECCENTRICITY   = .0000179
INCLINATION    = 53.1595
RA_OF_ASC_NODE = 189.2795
ARG_OF_PERICENTER = 106.5062
MEAN_ANOMALY   = 253.5980

EPHEMERIS_TYPE = 0
CLASSIFICATION_TYPE = U
NORAD_CAT_ID   = 68177
ELEMENT_SET_NO = 999
REV_AT_EPOCH   = 339
BSTAR          = .12571E-2
MEAN_MOTION_DOT = .256265E-2
MEAN_MOTION_DDOT = 0

CCSDS_OMM_VERS = 2.0
CREATION_DATE  = 
ORIGINATOR     = 

OBJECT_NAME    = STARLINK-36677
OBJECT_ID      = 2026-050M
CENTER_NAME    = EARTH
REF_FRAME      = TEME
TIME_SYSTEM    = UTC
MEAN_ELEMENT_THEORY = SGP/SGP4

EPOCH          = 2026-03-28T03:22:41.150784
MEAN_MOTION    = 15.80988289
ECCENTRICITY   = .0000773
INCLINATION    = 53.1596
RA_OF_ASC_NODE = 189.2739
ARG_OF_PERICENTER = 134.6620
MEAN_ANOMALY   = 225.4466

EPHEMERIS_TYPE = 0
CLASSIFICATION_TYPE = U
NORAD_CAT_ID   = 68178
ELEMENT_SET_NO = 999
REV_AT_EPOCH   = 339
BSTAR          = .11005E-2
MEAN_MOTION_DOT = .223403E-2
MEAN_MOTION_DDOT = 0

CCSDS_OMM_VERS = 2.0
CREATION_DATE  = 
ORIGINATOR     = 

OBJECT_NAME    = STARLINK-37052
OBJECT_ID      = 2026-050N
CENTER_NAME    = EARTH
REF_FRAME      = TEME
TIME_SYSTEM    = UTC
MEAN_ELEMENT_THEORY = SGP/SGP4

EPOCH          = 2026-03-28T03:21:36.526176
MEAN_MOTION    = 15.80976271
ECCENTRICITY   = .0000992
INCLINATION    = 53.1591
RA_OF_ASC_NODE = 189.2698
ARG_OF_PERICENTER = 128.0485
MEAN_ANOMALY   = 232.0628

EPHEMERIS_TYPE = 0
CLASSIFICATION_TYPE = U
NORAD_CAT_ID   = 68179
ELEMENT_SET_NO = 999
REV_AT_EPOCH   = 339
BSTAR          = .12984E-2
MEAN_MOTION_DOT = .264831E-2
MEAN_MOTION_DDOT = 0

